[
    {
        "Altitude(m)": 617719.7917695459,
        "Argument of Periapsis(deg)": 0.0,
        "Eccentricity": 0.0,
        "Inclination(deg)": 60.0,
        "Latitude(deg)": -41.10269648689429,
        "Longitude(deg)": -109.90540871636667,
        "Mean Anomaly(deg)": -130.9091,
        "RAAN(deg)": 140.0,
        "Satellite Name": "Test1 630",
        "Satellite Number": 630,
        "Semi-Major Axis(m)": 6980739.136638005,
        "Time(s)": 0
    },
    {
        "Altitude(m)": 617911.3279273764,
        "Argument of Periapsis(deg)": 0.00010418945913296404,
        "Eccentricity": 0.0,
        "Inclination(deg)": 60.0,
        "Latitude(deg)": -41.565889021213174,
        "Longitude(deg)": -109.4010026447502,
        "Mean Anomaly(deg)": -130.28899385453815,
        "RAAN(deg)": 139.99957995086024,
        "Satellite Name": "Test1 630",
        "Satellite Number": 630,
        "Semi-Major Axis(m)": 6980739.136638005,
        "Time(s)": 10
    }
]